POLYITAN-1              
1 40042U 14033AJ  26191.67076358  .00013465  00000+0  40997-3 0  9992
2 40042  98.0946 220.1661 0008191  77.9163 282.2995 15.34111365657193
TIGRISAT                
1 40043U 14033AK  26191.35917519  .00001004  00000+0  12097-3 0  9997
2 40043  97.7857 340.8441 0049054   0.2988 359.8248 14.85241074649069
AEROCUBE 6A             
1 40045U 14033AM  26190.73142161  .00003408  00000+0  28750-3 0  9996
2 40045  97.7235 357.4445 0036915 299.7682  59.9870 14.98308817649991
AEROCUBE 6B             
1 40046U 14033AN  26191.24554496  .00003186  00000+0  25890-3 0  9997
2 40046  97.7203 357.7928 0037944 287.6201  72.0880 14.99771692650212
CANX-4                  
1 40055U 14034C   26191.45650204  .00000539  00000+0  76449-4 0  9991
2 40055  98.3092  67.6207 0011574 299.7507  60.2552 14.81306260647976
CANX-5                  
1 40056U 14034D   26192.13014218  .00000452  00000+0  65216-4 0  9991
2 40056  98.3093  68.3639 0011539 297.5826  62.4213 14.81324107638884
UKUBE-1                 
1 40074U 14037F   26190.77553352  .00005644  00000+0  31609-3 0  9995
2 40074  98.4244 196.4263 0003240  97.6551 262.5046 15.13896142651974
BRITE-PL2 (HEWELIUSZ)   
1 40119U 14049B   26192.00553957  .00001150  00000+0  11136-3 0  9998
2 40119  97.9116 304.1924 0014696  35.8483 324.3720 14.94679368645003
AEROCUBE 5C             
1 40965U 15058B   26190.02939822  .00001855  00000+0  17147-3 0  9997
2 40965  64.7653 194.6344 0131922  54.7863 306.5516 14.91551276368913
AEROCUBE 7              
1 40966U 15058C   26190.36417644  .00003354  00000+0  27173-3 0  9994
2 40966  64.7605 175.3442 0121636  52.9912 308.2259 14.95877670369278
FOX-1A (AO-85)          
1 40967U 15058D   26192.02911053  .00001601  00000+0  15193-3 0  9995
2 40967  64.7731 204.8837 0132046  47.3799 313.8357 14.91072604117129
SINOD-D 1               
1 40968U 15058E   26191.40903385  .00003205  00000+0  25966-3 0  9997
2 40968  64.7732 186.1818 0120674  43.9846 317.0794 14.96059723120139
SNAP-3 ALICE            
1 40970U 15058G   26191.52641204  .00120022  00000+0  11218-2 0  9993
2 40970  64.7493  22.8906 0023802 351.6430   8.4319 15.66308605120535
LMRST-SAT               
1 40971U 15058H   26191.31966356  .00001755  00000+0  16606-3 0  9997
2 40971  64.7738 203.4710 0133546  49.6543 311.6141 14.90686200117000
SNAP-3 EDDIE            
1 40972U 15058J   26192.19970762  .00107900  00000+0  95146-3 0  9996
2 40972  64.7399  11.0848 0024977 354.0835   6.0015 15.67747978122784
PROPCUBE 3              
1 40973U 15058K   26191.96745042  .00002459  00000+0  20942-3 0  9997
2 40973  64.7665 178.2288 0125444  50.6116 310.6027 14.94394319118358
BISONSAT                
1 40974U 15058L   26192.16907161  .00009235  00000+0  43798-3 0  9996
2 40974  64.7586  96.0683 0081716  37.5651 323.1143 15.16860579119257
SNAP-3 JIMI             
1 40975U 15058M   26191.28676831  .00005297  00000+0  36255-3 0  9990
2 40975  64.7635 146.6720 0107415  46.2352 314.7592 15.02565119117694
PROPCUBE 1 (FLORA)      
1 40976U 15058N   26191.36298390  .00001364  00000+0  13778-3 0  9996
2 40976  64.7729 223.4027 0132128  51.9307 309.3637 14.89314103119719
SINOD-D 3               
1 40977U 15058P   26192.00292926  .00002249  00000+0  19615-3 0  9997
2 40977  64.7702 201.4415 0120732  48.7565 312.3875 14.94152820118311
RAVAN                   
1 41849U 16067B   26190.61910389  .00045047  00000+0  62255-3 0  9993
2 41849  97.9855  82.8186 0001699 255.2675 104.8390 15.57028665531189
CELTEE 1                
1 41850U 16067C   26192.10687147  .00003339  00000+0  15905-3 0  9992
2 41850  98.0649  60.3057 0002193 115.6959 244.4500 15.19916228529513
OPTICUBE 04             
1 41851U 16067D   26191.40945807  .00001920  00000+0  12308-3 0  9993
2 41851  98.0683  44.9036 0016484  43.2384 317.0135 15.09759786528673
AEROCUBE 8D             
1 41852U 16067E   26189.61813817  .00004874  00000+0  20032-3 0  9993
2 41852  98.0658  61.4206 0004878  72.9126 287.2644 15.24707647529339
AEROCUBE 8C             
1 41853U 16067F   26192.06738551  .00004549  00000+0  18565-3 0  9995
2 41853  98.0531  61.2545 0004677 357.4690   2.6521 15.24986658529703
CORVUS BC2              
1 42846U 17042X   26191.31136565  .00002103  00000+0  14633-3 0  9992
2 42846  97.4090 351.7667 0013871  39.1681 321.0548 15.06442373490548
CORVUS BC1              
1 42847U 17042Y   26191.70191670  .00001633  00000+0  11410-3 0  9991
2 42847  97.4119 352.9716 0012081  16.3956 343.7660 15.06607650490630
MAKERSAT 0              
1 43016U 17073D   26192.14351799  .00012570  00000+0  33352-3 0  9994
2 43016  97.4598  74.8581 0105180 186.6952 173.2893 15.32906919470136
SIRION PATHFINDER-2     
1 43759U 18099B   26190.44534952  .00002996  00000+0  16503-3 0  9992
2 43759  97.4244 238.9746 0007887 212.4979 147.5769 15.14748987415994
CORVUS BC4              
1 43767U 18099K   26192.06983331  .00002873  00000+0  16777-3 0  9997
2 43767  97.4058 234.3515 0006530 278.9204  81.1287 15.12681527416018
